[{"OBJECT_NAME":"QIANFAN-18","OBJECT_ID":"2024-140T","EPOCH":"2026-03-05T17:43:54.760800","MEAN_MOTION":13.51003733,"ECCENTRICITY":0.0013124,"INCLINATION":88.972,"RA_OF_ASC_NODE":290.3877,"ARG_OF_PERICENTER":314.6784,"MEAN_ANOMALY":45.3297,"EPHEMERIS_TYPE":0,"CLASSIFICATION_TYPE":"U","NORAD_CAT_ID":60396,"ELEMENT_SET_NO":999,"REV_AT_EPOCH":7873,"BSTAR":0.0001668,"MEAN_MOTION_DOT":1.2e-6,"MEAN_MOTION_DDOT":0},{"OBJECT_NAME":"QIANFAN-19","OBJECT_ID":"2024-185A","EPOCH":"2026-03-05T18:51:11.702304","MEAN_MOTION":14.14387485,"ECCENTRICITY":0.0008615,"INCLINATION":88.9759,"RA_OF_ASC_NODE":68.4056,"ARG_OF_PERICENTER":50.5642,"MEAN_ANOMALY":309.6306,"EPHEMERIS_TYPE":0,"CLASSIFICATION_TYPE":"U","NORAD_CAT_ID":61552,"ELEMENT_SET_NO":999,"REV_AT_EPOCH":8140,"BSTAR":0.00035284,"MEAN_MOTION_DOT":6.89e-6,"MEAN_MOTION_DDOT":0},{"OBJECT_NAME":"QIANFAN-20","OBJECT_ID":"2024-185B","EPOCH":"2026-03-05T18:49:09.118848","MEAN_MOTION":14.08933838,"ECCENTRICITY":0.0007889,"INCLINATION":88.9756,"RA_OF_ASC_NODE":68.8135,"ARG_OF_PERICENTER":82.3096,"MEAN_ANOMALY":277.8983,"EPHEMERIS_TYPE":0,"CLASSIFICATION_TYPE":"U","NORAD_CAT_ID":61553,"ELEMENT_SET_NO":999,"REV_AT_EPOCH":8118,"BSTAR":0.00037623,"MEAN_MOTION_DOT":6.64e-6,"MEAN_MOTION_DDOT":0},{"OBJECT_NAME":"QIANFAN-21","OBJECT_ID":"2024-185C","EPOCH":"2026-03-05T17:54:22.259808","MEAN_MOTION":14.22728504,"ECCENTRICITY":0.0013019,"INCLINATION":88.9677,"RA_OF_ASC_NODE":67.2371,"ARG_OF_PERICENTER":92.5261,"MEAN_ANOMALY":267.7421,"EPHEMERIS_TYPE":0,"CLASSIFICATION_TYPE":"U","NORAD_CAT_ID":61554,"ELEMENT_SET_NO":999,"REV_AT_EPOCH":8177,"BSTAR":0.00037988,"MEAN_MOTION_DOT":8.66e-6,"MEAN_MOTION_DDOT":0},{"OBJECT_NAME":"QIANFAN-22","OBJECT_ID":"2024-185D","EPOCH":"2026-03-05T17:19:46.694208","MEAN_MOTION":13.86338907,"ECCENTRICITY":0.0008608,"INCLINATION":88.974,"RA_OF_ASC_NODE":70.1372,"ARG_OF_PERICENTER":99.7751,"MEAN_ANOMALY":260.4393,"EPHEMERIS_TYPE":0,"CLASSIFICATION_TYPE":"U","NORAD_CAT_ID":61555,"ELEMENT_SET_NO":999,"REV_AT_EPOCH":8043,"BSTAR":0.0002702,"MEAN_MOTION_DOT":3.26e-6,"MEAN_MOTION_DDOT":0},{"OBJECT_NAME":"QIANFAN-23","OBJECT_ID":"2024-185E","EPOCH":"2026-03-05T18:50:37.645152","MEAN_MOTION":14.16392707,"ECCENTRICITY":0.0009555,"INCLINATION":88.9751,"RA_OF_ASC_NODE":68.1763,"ARG_OF_PERICENTER":58.4291,"MEAN_ANOMALY":301.7829,"EPHEMERIS_TYPE":0,"CLASSIFICATION_TYPE":"U","NORAD_CAT_ID":61556,"ELEMENT_SET_NO":999,"REV_AT_EPOCH":8150,"BSTAR":0.00037934,"MEAN_MOTION_DOT":7.68e-6,"MEAN_MOTION_DDOT":0},{"OBJECT_NAME":"QIANFAN-24","OBJECT_ID":"2024-185F","EPOCH":"2026-03-05T16:17:28.842720","MEAN_MOTION":14.23932588,"ECCENTRICITY":0.00106,"INCLINATION":88.9735,"RA_OF_ASC_NODE":67.4579,"ARG_OF_PERICENTER":38.8169,"MEAN_ANOMALY":321.3783,"EPHEMERIS_TYPE":0,"CLASSIFICATION_TYPE":"U","NORAD_CAT_ID":61557,"ELEMENT_SET_NO":999,"REV_AT_EPOCH":8182,"BSTAR":0.00045345,"MEAN_MOTION_DOT":1.054e-5,"MEAN_MOTION_DDOT":0},{"OBJECT_NAME":"QIANFAN-25","OBJECT_ID":"2024-185G","EPOCH":"2026-03-05T18:41:59.531136","MEAN_MOTION":14.05995378,"ECCENTRICITY":0.0011914,"INCLINATION":88.9748,"RA_OF_ASC_NODE":68.7723,"ARG_OF_PERICENTER":65.0779,"MEAN_ANOMALY":295.164,"EPHEMERIS_TYPE":0,"CLASSIFICATION_TYPE":"U","NORAD_CAT_ID":61558,"ELEMENT_SET_NO":999,"REV_AT_EPOCH":8117,"BSTAR":0.00035173,"MEAN_MOTION_DOT":5.9e-6,"MEAN_MOTION_DDOT":0},{"OBJECT_NAME":"QIANFAN-26","OBJECT_ID":"2024-185H","EPOCH":"2026-03-05T18:07:35.697792","MEAN_MOTION":13.77861512,"ECCENTRICITY":0.0007695,"INCLINATION":88.9746,"RA_OF_ASC_NODE":70.7738,"ARG_OF_PERICENTER":112.4112,"MEAN_ANOMALY":247.787,"EPHEMERIS_TYPE":0,"CLASSIFICATION_TYPE":"U","NORAD_CAT_ID":61559,"ELEMENT_SET_NO":999,"REV_AT_EPOCH":8010,"BSTAR":0.00028496,"MEAN_MOTION_DOT":2.98e-6,"MEAN_MOTION_DDOT":0},{"OBJECT_NAME":"QIANFAN-27","OBJECT_ID":"2024-185J","EPOCH":"2026-03-05T16:19:20.542368","MEAN_MOTION":14.27443539,"ECCENTRICITY":0.000865,"INCLINATION":88.9748,"RA_OF_ASC_NODE":67.2007,"ARG_OF_PERICENTER":32.2089,"MEAN_ANOMALY":327.9632,"EPHEMERIS_TYPE":0,"CLASSIFICATION_TYPE":"U","NORAD_CAT_ID":61560,"ELEMENT_SET_NO":999,"REV_AT_EPOCH":8199,"BSTAR":0.00028864,"MEAN_MOTION_DOT":7.23e-6,"MEAN_MOTION_DDOT":0},{"OBJECT_NAME":"QIANFAN-28","OBJECT_ID":"2024-185K","EPOCH":"2026-03-05T18:13:54.003648","MEAN_MOTION":14.28213237,"ECCENTRICITY":0.0008249,"INCLINATION":88.9764,"RA_OF_ASC_NODE":67.1985,"ARG_OF_PERICENTER":33.098,"MEAN_ANOMALY":327.073,"EPHEMERIS_TYPE":0,"CLASSIFICATION_TYPE":"U","NORAD_CAT_ID":61561,"ELEMENT_SET_NO":999,"REV_AT_EPOCH":8202,"BSTAR":0.00047845,"MEAN_MOTION_DOT":1.206e-5,"MEAN_MOTION_DDOT":0},{"OBJECT_NAME":"QIANFAN-29","OBJECT_ID":"2024-185L","EPOCH":"2026-03-05T18:17:39.835968","MEAN_MOTION":13.51043695,"ECCENTRICITY":0.0010387,"INCLINATION":88.9718,"RA_OF_ASC_NODE":72.7148,"ARG_OF_PERICENTER":159.3264,"MEAN_ANOMALY":200.831,"EPHEMERIS_TYPE":0,"CLASSIFICATION_TYPE":"U","NORAD_CAT_ID":61562,"ELEMENT_SET_NO":999,"REV_AT_EPOCH":7900,"BSTAR":0.00030236,"MEAN_MOTION_DOT":2.08e-6,"MEAN_MOTION_DDOT":0},{"OBJECT_NAME":"QIANFAN-30","OBJECT_ID":"2024-185M","EPOCH":"2026-03-05T17:25:18.987744","MEAN_MOTION":13.50018748,"ECCENTRICITY":0.0008682,"INCLINATION":88.9738,"RA_OF_ASC_NODE":72.2758,"ARG_OF_PERICENTER":143.6486,"MEAN_ANOMALY":216.5256,"EPHEMERIS_TYPE":0,"CLASSIFICATION_TYPE":"U","NORAD_CAT_ID":61563,"ELEMENT_SET_NO":999,"REV_AT_EPOCH":7926,"BSTAR":0.0003051,"MEAN_MOTION_DOT":2.06e-6,"MEAN_MOTION_DDOT":0},{"OBJECT_NAME":"QIANFAN-31","OBJECT_ID":"2024-185N","EPOCH":"2026-03-05T15:34:41.179872","MEAN_MOTION":13.58003079,"ECCENTRICITY":0.0008341,"INCLINATION":88.9723,"RA_OF_ASC_NODE":71.9536,"ARG_OF_PERICENTER":135.4225,"MEAN_ANOMALY":224.7602,"EPHEMERIS_TYPE":0,"CLASSIFICATION_TYPE":"U","NORAD_CAT_ID":61564,"ELEMENT_SET_NO":999,"REV_AT_EPOCH":7941,"BSTAR":0.00029154,"MEAN_MOTION_DOT":2.23e-6,"MEAN_MOTION_DDOT":0},{"OBJECT_NAME":"QIANFAN-32","OBJECT_ID":"2024-185P","EPOCH":"2026-03-05T17:20:30.054048","MEAN_MOTION":13.50763966,"ECCENTRICITY":0.0009725,"INCLINATION":88.9782,"RA_OF_ASC_NODE":72.4357,"ARG_OF_PERICENTER":172.3662,"MEAN_ANOMALY":187.7639,"EPHEMERIS_TYPE":0,"CLASSIFICATION_TYPE":"U","NORAD_CAT_ID":61565,"ELEMENT_SET_NO":999,"REV_AT_EPOCH":7924,"BSTAR":0.00022925,"MEAN_MOTION_DOT":1.6e-6,"MEAN_MOTION_DDOT":0},{"OBJECT_NAME":"QIANFAN-33","OBJECT_ID":"2024-185Q","EPOCH":"2026-03-05T17:29:47.112864","MEAN_MOTION":13.96623184,"ECCENTRICITY":0.000929,"INCLINATION":88.9737,"RA_OF_ASC_NODE":69.5373,"ARG_OF_PERICENTER":73.3075,"MEAN_ANOMALY":286.9121,"EPHEMERIS_TYPE":0,"CLASSIFICATION_TYPE":"U","NORAD_CAT_ID":61566,"ELEMENT_SET_NO":999,"REV_AT_EPOCH":8074,"BSTAR":0.00037647,"MEAN_MOTION_DOT":5.35e-6,"MEAN_MOTION_DDOT":0},{"OBJECT_NAME":"QIANFAN-34","OBJECT_ID":"2024-185R","EPOCH":"2026-03-05T18:46:11.105472","MEAN_MOTION":14.02383382,"ECCENTRICITY":0.0008303,"INCLINATION":88.9713,"RA_OF_ASC_NODE":68.9846,"ARG_OF_PERICENTER":76.7803,"MEAN_ANOMALY":283.4303,"EPHEMERIS_TYPE":0,"CLASSIFICATION_TYPE":"U","NORAD_CAT_ID":61567,"ELEMENT_SET_NO":999,"REV_AT_EPOCH":8099,"BSTAR":0.00037612,"MEAN_MOTION_DOT":5.91e-6,"MEAN_MOTION_DDOT":0}]
